QIANFAN-49              
1 62250U 24232P   25196.56239525  .00000067  00000+0  84980-4 0  9993
2 62250  88.9942  56.4283 0012235 270.4845  89.4904 13.50959478 47565
QIANFAN-50              
1 62251U 24232Q   25196.58719982  .00000054  00000+0  65541-4 0  9994
2 62251  88.9947  56.4256 0013901 271.8222  88.1337 13.50952524 47590
QIANFAN-51              
1 62252U 24232R   25196.57076358  .00000067  00000+0  86019-4 0  9994
2 62252  88.9941  56.4305 0011419 276.4601  83.5250 13.50956585 47587
QIANFAN-52              
1 62253U 24232S   25196.59955883  .00000073  00000+0  94615-4 0  9994
2 62253  88.9937  56.3069 0013382 267.1376  92.8244 13.50957658 47674
QIANFAN-53              
1 62254U 24232T   25196.57893937  .00000062  00000+0  77165-4 0  9993
2 62254  88.9945  56.4023 0012262 268.5556  91.4191 13.50951547 47639
QIANFAN-54              
1 62255U 24232U   25196.54592944  .00000060  00000+0  74770-4 0  9992
2 62255  88.9935  56.0971 0001655  12.4188 347.7004 13.50950502 79138
QIANFAN-55              
1 62785U 25016A   25196.57213881  .00000141  00000+0  19982-3 0  9997
2 62785  88.9863 118.6842 0019714  64.0215 296.2964 13.50958535 26912
QIANFAN-56              
1 62786U 25016B   25196.58849171  .00000149  00000+0  21163-3 0  9998
2 62786  88.9836 118.5598 0018372  66.1945 294.1130 13.50950823 26961
